CTC1_L_00672007-03
1 10062U 22526QV  26075.70040509  .00000000  00000+0  00000-0 0  9990
2 10062  65.0000 180.0000 0000000   0.0000 144.0000  1.97017143    14
CTC1_L_00672007-04
1 10063U 25748KE  26075.70040509  .00000000  00000+0  00000-0 0  9990
2 10063  65.0000 180.0000 0000000   0.0000 180.0000  1.97017143    15
CTC1_L_00672007-05
1 10064U 24223TQ  26075.70040509  .00000000  00000+0  00000-0 0  9998
2 10064  65.0000 180.0000 0000000   0.0000 216.0000  1.97017143    16
CTC1_L_00672007-06
1 10065U 26801UL  26075.70040509  .00000000  00000+0  00000-0 0  9993
2 10065  65.0000 180.0000 0000000   0.0000 252.0000  1.97017143    17
CTC1_L_00672007-07
1 10066U 23108FW  26075.70040509  .00000000  00000+0  00000-0 0  9991
2 10066  65.0000 180.0000 0000000   0.0000 288.0000  1.97017143    17
CTC1_L_00672007-08
1 10067U 26820AF  26075.70040509  .00000000  00000+0  00000-0 0  9996
2 10067  65.0000 180.0000 0000000   0.0000 324.0000  1.97017143    19
CTC1_L_00672007-09
1 10068U 24991HK  26075.70040509  .00000000  00000+0  00000-0 0  9994
2 10068  65.0000 180.0000 0000000   0.0000   0.0000  1.97017143    11
CTC1_L_00672007-10
1 10069U 23886IQ  26075.70040509  .00000000  00000+0  00000-0 0  9997
2 10069  65.0000 180.0000 0000000   0.0000  36.0000  1.97017143    11
CTC1_L_00672008-01
1 10070U 24310BD  26075.70040509  .00000000  00000+0  00000-0 0  9992
2 10070  65.0000 210.0000 0000000   0.0000  84.0000  1.97017143    10
CTC1_L_00672008-02
1 10071U 26067GZ  26075.70040509  .00000000  00000+0  00000-0 0  9994
2 10071  65.0000 210.0000 0000000   0.0000 120.0000  1.97017143    12
CTC1_L_00672008-03
1 10072U 26093NQ  26075.70040509  .00000000  00000+0  00000-0 0  9994
2 10072  65.0000 210.0000 0000000   0.0000 156.0000  1.97017143    12
CTC1_L_00672008-04
1 10073U 25731NO  26075.70040509  .00000000  00000+0  00000-0 0  9993
2 10073  65.0000 210.0000 0000000   0.0000 192.0000  1.97017143    13
CTC1_L_00672008-05
1 10074U 24383RT  26075.70040509  .00000000  00000+0  00000-0 0  9996
2 10074  65.0000 210.0000 0000000   0.0000 228.0000  1.97017143    14
CTC1_L_00672008-06
1 10075U 25263GR  26075.70040509  .00000000  00000+0  00000-0 0  9995
2 10075  65.0000 210.0000 0000000   0.0000 264.0000  1.97017143    15
CTC1_L_00672008-07
1 10076U 26460WL  26075.70040509  .00000000  00000+0  00000-0 0  9996
2 10076  65.0000 210.0000 0000000   0.0000 300.0000  1.97017143    17
CTC1_L_00672008-08
1 10077U 23089HD  26075.70040509  .00000000  00000+0  00000-0 0  9991
2 10077  65.0000 210.0000 0000000   0.0000 336.0000  1.97017143    17
CTC1_L_00672008-09
1 10078U 25078TA  26075.70040509  .00000000  00000+0  00000-0 0  9992
2 10078  65.0000 210.0000 0000000   0.0000  12.0000  1.97017143    19
CTC1_L_00672008-10
1 10079U 23430OC  26075.70040509  .00000000  00000+0  00000-0 0  9993
2 10079  65.0000 210.0000 0000000   0.0000  48.0000  1.97017143    19
CTC1_L_00672009-01
1 10080U 22040N   26075.70040509  .00000000  00000+0  00000-0 0  9991
2 10080  65.0000 240.0000 0000000   0.0000  96.0000  1.97017143    17
CTC1_L_00672009-02
1 10081U 24215PQ  26075.70040509  .00000000  00000+0  00000-0 0  9998
2 10081  65.0000 240.0000 0000000   0.0000 132.0000  1.97017143    19
CTC1_L_00672009-03
1 10082U 24289JE  26075.70040509  .00000000  00000+0  00000-0 0  9990
2 10082  65.0000 240.0000 0000000   0.0000 168.0000  1.97017143    19
CTC1_L_00672009-04
1 10083U 24827AL  26075.70040509  .00000000  00000+0  00000-0 0  9999
2 10083  65.0000 240.0000 0000000   0.0000 204.0000  1.97017143    11
CTC1_L_00672009-05
1 10084U 25176NA  26075.70040509  .00000000  00000+0  00000-0 0  9998
2 10084  65.0000 240.0000 0000000   0.0000 240.0000  1.97017143    12
CTC1_L_00672009-06
1 10085U 25624LR  26075.70040509  .00000000  00000+0  00000-0 0  9997
2 10085  65.0000 240.0000 0000000   0.0000 276.0000  1.97017143    12
CTC1_L_00672009-07
1 10086U 22115PC  26075.70040509  .00000000  00000+0  00000-0 0  9990
2 10086  65.0000 240.0000 0000000   0.0000 312.0000  1.97017143    14
CTC1_L_00672009-08
1 10087U 26041SP  26075.70040509  .00000000  00000+0  00000-0 0  9993
2 10087  65.0000 240.0000 0000000   0.0000 348.0000  1.97017143    14
CTC1_L_00672009-09
1 10088U 22308P   26075.70040509  .00000000  00000+0  00000-0 0  9996
2 10088  65.0000 240.0000 0000000   0.0000  24.0000  1.97017143    16
CTC1_L_00672009-10
1 10089U 23753CP  26075.70040509  .00000000  00000+0  00000-0 0  9992
2 10089  65.0000 240.0000 0000000   0.0000  60.0000  1.97017143    17
CTC1_L_00672010-01
1 10090U 22295YN  26075.70040509  .00000000  00000+0  00000-0 0  9994
2 10090  65.0000 270.0000 0000000   0.0000 108.0000  1.97017143    15
CTC1_L_00672010-02
1 10091U 22396TX  26075.70040509  .00000000  00000+0  00000-0 0  9997
2 10091  65.0000 270.0000 0000000   0.0000 144.0000  1.97017143    16
CTC1_L_00672010-03
1 10092U 24902DO  26075.70040509  .00000000  00000+0  00000-0 0  9993
2 10092  65.0000 270.0000 0000000   0.0000 180.0000  1.97017143    17
CTC1_L_00672010-04
1 10093U 25775DQ  26075.70040509  .00000000  00000+0  00000-0 0  9993
2 10093  65.0000 270.0000 0000000   0.0000 216.0000  1.97017143    18
CTC1_L_00672010-05
1 10094U 22318XE  26075.70040509  .00000000  00000+0  00000-0 0  9994
2 10094  65.0000 270.0000 0000000   0.0000 252.0000  1.97017143    19
CTC1_L_00672010-06
1 10095U 25241IM  26075.70040509  .00000000  00000+0  00000-0 0  9993
2 10095  65.0000 270.0000 0000000   0.0000 288.0000  1.97017143    19
CTC1_L_00672010-07
1 10096U 22626FI  26075.70040509  .00000000  00000+0  00000-0 0  9998
2 10096  65.0000 270.0000 0000000   0.0000 324.0000  1.97017143    11
CTC1_L_00672010-08
1 10097U 26670OR  26075.70040509  .00000000  00000+0  00000-0 0  9992
2 10097  65.0000 270.0000 0000000   0.0000   0.0000  1.97017143    13
CTC1_L_00672010-09
1 10098U 22292DN  26075.70040509  .00000000  00000+0  00000-0 0  9999
2 10098  65.0000 270.0000 0000000   0.0000  36.0000  1.97017143    13
CTC1_L_00672010-10
1 10099U 24190QI  26075.70040509  .00000000  00000+0  00000-0 0  9999
2 10099  65.0000 270.0000 0000000   0.0000  72.0000  1.97017143    14
CTC1_L_00672011-01
1 10100U 26776FL  26075.70040509  .00000000  00000+0  00000-0 0  9994
2 10100  65.0000 300.0000 0000000   0.0000 120.0000  1.97017143    15
CTC1_L_00672011-02
1 10101U 22587SJ  26075.70040509  .00000000  00000+0  00000-0 0  9991
2 10101  65.0000 300.0000 0000000   0.0000 156.0000  1.97017143    15
CTC1_L_00672011-03
1 10102U 22075GJ  26075.70040509  .00000000  00000+0  00000-0 0  9994
2 10102  65.0000 300.0000 0000000   0.0000 192.0000  1.97017143    16
CTC1_L_00672011-04
1 10103U 24195FQ  26075.70040509  .00000000  00000+0  00000-0 0  9990
2 10103  65.0000 300.0000 0000000   0.0000 228.0000  1.97017143    17
CTC1_L_00672011-05
1 10104U 24372OQ  26075.70040509  .00000000  00000+0  00000-0 0  9998
2 10104  65.0000 300.0000 0000000   0.0000 264.0000  1.97017143    18
CTC1_L_00672011-06
1 10105U 25206MA  26075.70040509  .00000000  00000+0  00000-0 0  9996
2 10105  65.0000 300.0000 0000000   0.0000 300.0000  1.97017143    10
CTC1_L_00672011-07
1 10106U 24610UQ  26075.70040509  .00000000  00000+0  00000-0 0  9995
2 10106  65.0000 300.0000 0000000   0.0000 336.0000  1.97017143    10
CTC1_L_00672011-08
1 10107U 24820Y   26075.70040509  .00000000  00000+0  00000-0 0  9999
2 10107  65.0000 300.0000 0000000   0.0000  12.0000  1.97017143    12
CTC1_L_00672011-09
1 10108U 26301AK  26075.70040509  .00000000  00000+0  00000-0 0  9996
2 10108  65.0000 300.0000 0000000   0.0000  48.0000  1.97017143    12
CTC1_L_00672011-10
1 10109U 22611RT  26075.70040509  .00000000  00000+0  00000-0 0  9997
2 10109  65.0000 300.0000 0000000   0.0000  84.0000  1.97017143    13
CTC1_L_00672012-01
1 10110U 26732GY  26075.70040509  .00000000  00000+0  00000-0 0  9997
2 10110  65.0000 330.0000 0000000   0.0000 132.0000  1.97017143    12
CTC1_L_00672012-02
1 10111U 26059ET  26075.70040509  .00000000  00000+0  00000-0 0  9990
2 10111  65.0000 330.0000 0000000   0.0000 168.0000  1.97017143    12
CTC1_L_00672012-03
1 10112U 24856P   26075.70040509  .00000000  00000+0  00000-0 0  9994
2 10112  65.0000 330.0000 0000000   0.0000 204.0000  1.97017143    14
CTC1_L_00672012-04
1 10113U 22702NC  26075.70040509  .00000000  00000+0  00000-0 0  9993
2 10113  65.0000 330.0000 0000000   0.0000 240.0000  1.97017143    15
CTC1_L_00672012-05
1 10114U 23248PO  26075.70040509  .00000000  00000+0  00000-0 0  9990
2 10114  65.0000 330.0000 0000000   0.0000 276.0000  1.97017143    15
CTC1_L_00672012-06
1 10115U 22723XV  26075.70040509  .00000000  00000+0  00000-0 0  9998
2 10115  65.0000 330.0000 0000000   0.0000 312.0000  1.97017143    17
CTC1_L_00672012-07
1 10116U 26228FJ  26075.70040509  .00000000  00000+0  00000-0 0  9993
2 10116  65.0000 330.0000 0000000   0.0000 348.0000  1.97017143    17
CTC1_L_00672012-08
1 10117U 25448IK  26075.70040509  .00000000  00000+0  00000-0 0  9997
2 10117  65.0000 330.0000 0000000   0.0000  24.0000  1.97017143    19
CTC1_L_00672012-09
1 10118U 26548DL  26075.70040509  .00000000  00000+0  00000-0 0  9990
2 10118  65.0000 330.0000 0000000   0.0000  60.0000  1.97017143    10
CTC1_L_00672012-10
1 10119U 26551DO  26075.70040509  .00000000  00000+0  00000-0 0  9995
2 10119  65.0000 330.0000 0000000   0.0000  96.0000  1.97017143    10
